[{"OBJECT_NAME":"STARLINK-4566","OBJECT_ID":"2022-105AX","EPOCH":"2026-03-09T15:12:10.655424","MEAN_MOTION":15.05668872,"ECCENTRICITY":0.0002388,"INCLINATION":97.6042,"RA_OF_ASC_NODE":311.2454,"ARG_OF_PERICENTER":82.4569,"MEAN_ANOMALY":277.6929,"EPHEMERIS_TYPE":0,"CLASSIFICATION_TYPE":"U","NORAD_CAT_ID":53693,"ELEMENT_SET_NO":999,"REV_AT_EPOCH":19330,"BSTAR":-0.00030233,"MEAN_MOTION_DOT":-4.423e-5,"MEAN_MOTION_DDOT":0},{"OBJECT_NAME":"CZ-4B R\/B","OBJECT_ID":"2008-053C","EPOCH":"2026-03-09T16:52:55.405920","MEAN_MOTION":15.20774751,"ECCENTRICITY":0.00860777,"INCLINATION":97.7895,"RA_OF_ASC_NODE":133.277,"ARG_OF_PERICENTER":241.1085,"MEAN_ANOMALY":118.1494,"EPHEMERIS_TYPE":0,"CLASSIFICATION_TYPE":"U","NORAD_CAT_ID":33410,"ELEMENT_SET_NO":999,"REV_AT_EPOCH":94950,"BSTAR":0.00029822835,"MEAN_MOTION_DOT":7.181e-5,"MEAN_MOTION_DDOT":0}]
